*******************************************************************************
Ephemeris / WWW_USER Mon Dec 26 18:04:24 2016 Pasadena, USA      / Horizons    
*******************************************************************************
Target body name: Moon (301)                      {source: DE431mx}
Center body name: Earth (399)                     {source: DE431mx}
Center-site name: (user defined site below)
*******************************************************************************
Start time      : A.D. 2021-Jan-01 00:00:00.0000 UT      
Stop  time      : A.D. 2021-May-02 00:00:00.0000 UT      
Step-size       : 2 minutes
*******************************************************************************
Target pole/equ : IAU_MOON                        {East-longitude +}
Target radii    : 1737.4 x 1737.4 x 1737.4 km     {Equator, meridian, pole}    
Center geodetic : 284.844200,39.9494000,-1.01E-12 {E-lon(deg),Lat(deg),Alt(km)}
Center cylindric: 284.844200,4896.31709,4073.6801 {E-lon(deg),Dxy(km),Dz(km)}
Center pole/equ : High-precision EOP model        {East-longitude +}
Center radii    : 6378.1 x 6378.1 x 6356.8 km     {Equator, meridian, pole}    
Target primary  : Earth
Vis. interferer : MOON (R_eq= 1737.400) km        {source: DE431mx}
Rel. light bend : Sun, EARTH                      {source: DE431mx}
Rel. lght bnd GM: 1.3271E+11, 3.9860E+05 km^3/s^2                              
Atmos refraction: NO (AIRLESS)
RA format       : HMS
Time format     : CAL 
RTS-only print  : NO       
EOP file        : eop.161226.p170319                                           
EOP coverage    : DATA-BASED 1962-JAN-20 TO 2016-DEC-26. PREDICTS-> 2017-MAR-18
Units conversion: 1 au= 149597870.700 km, c= 299792.458 km/s, 1 day= 86400.0 s 
Table cut-offs 1: Elevation (-90.0deg=NO ),Airmass (>38.000=NO), Daylight (NO )
Table cut-offs 2: Solar Elongation (  0.0,180.0=NO ),Local Hour Angle( 0.0=NO )
*******************************************************************************
 Date__(UT)__HR:MN     Azi_(a-appr)_Elev
****************************************
$$SOE
 2021-Mar-17 11:12 *    50.5641 -21.9117
 2021-Mar-17 11:14 *    50.9620 -21.6201
 2021-Mar-17 11:16 *    51.3578 -21.3269
 2021-Mar-17 11:18 *    51.7514 -21.0321
 2021-Mar-17 11:20 *    52.1429 -20.7358
 2021-Mar-17 11:22 *    52.5324 -20.4379
 2021-Mar-17 11:24 *    52.9198 -20.1384
 2021-Mar-17 11:26 *    53.3051 -19.8375
 2021-Mar-17 11:28 *    53.6884 -19.5350
 2021-Mar-17 11:30 *    54.0697 -19.2311
 2021-Mar-17 11:32 *    54.4491 -18.9257
 2021-Mar-17 11:34 *    54.8265 -18.6189
 2021-Mar-17 11:36 *    55.2020 -18.3107
 2021-Mar-17 11:38 *    55.5755 -18.0011
 2021-Mar-17 11:40 *    55.9472 -17.6902
 2021-Mar-17 11:42 *    56.3170 -17.3778
 2021-Mar-17 11:44 *    56.6850 -17.0642
 2021-Mar-17 11:46 *    57.0512 -16.7492
 2021-Mar-17 11:48 *    57.4156 -16.4330
 2021-Mar-17 11:50 *    57.7782 -16.1154
 2021-Mar-17 11:52 *    58.1391 -15.7966
 2021-Mar-17 11:54 *    58.4982 -15.4766
 2021-Mar-17 11:56 *    58.8557 -15.1553
 2021-Mar-17 11:58 *    59.2115 -14.8328
 2021-Mar-17 12:00 *    59.5656 -14.5092
 2021-Mar-17 12:02 *    59.9182 -14.1843
 2021-Mar-17 12:04 *    60.2691 -13.8584
 2021-Mar-17 12:06 *    60.6184 -13.5312
 2021-Mar-17 12:08 *    60.9662 -13.2030
 2021-Mar-17 12:10 *    61.3125 -12.8737
 2021-Mar-17 12:12 *    61.6572 -12.5432
 2021-Mar-17 12:14 *    62.0005 -12.2117
 2021-Mar-17 12:16 *    62.3423 -11.8791
 2021-Mar-17 12:18 *    62.6827 -11.5455
 2021-Mar-17 12:20 *    63.0217 -11.2109
 2021-Mar-17 12:22 *    63.3592 -10.8753
 2021-Mar-17 12:24 *    63.6954 -10.5386
 2021-Mar-17 12:26 *    64.0303 -10.2010
 2021-Mar-17 12:28 *    64.3639  -9.8624
 2021-Mar-17 12:30 *    64.6961  -9.5229
 2021-Mar-17 12:32 *    65.0271  -9.1824
 2021-Mar-17 12:34 *    65.3568  -8.8410
 2021-Mar-17 12:36 *    65.6853  -8.4987
 2021-Mar-17 12:38 *    66.0126  -8.1555
 2021-Mar-17 12:40 *    66.3388  -7.8114
 2021-Mar-17 12:42 *    66.6637  -7.4665
 2021-Mar-17 12:44 *    66.9876  -7.1207
 2021-Mar-17 12:46 *    67.3103  -6.7740
 2021-Mar-17 12:48 *    67.6319  -6.4266
 2021-Mar-17 12:50 *    67.9525  -6.0783
 2021-Mar-17 12:52 *    68.2720  -5.7292
 2021-Mar-17 12:54 *    68.5905  -5.3794
 2021-Mar-17 12:56 *    68.9080  -5.0287
 2021-Mar-17 12:58 *    69.2246  -4.6773
 2021-Mar-17 13:00 *    69.5402  -4.3252
 2021-Mar-17 13:02 *    69.8548  -3.9723
 2021-Mar-17 13:04 *    70.1686  -3.6186
 2021-Mar-17 13:06 *    70.4815  -3.2643
 2021-Mar-17 13:08 *    70.7935  -2.9093
 2021-Mar-17 13:10 *    71.1047  -2.5536
 2021-Mar-17 13:12 *    71.4151  -2.1972
 2021-Mar-17 13:14 *    71.7247  -1.8401
 2021-Mar-17 13:16 *    72.0335  -1.4824
 2021-Mar-17 13:18 *    72.3416  -1.1240
 2021-Mar-17 13:20 *r   72.6489  -0.7650
 2021-Mar-17 13:22 *m   72.9556  -0.4054
 2021-Mar-17 13:24 *m   73.2615  -0.0452
 2021-Mar-17 13:26 *m   73.5669   0.3156
 2021-Mar-17 13:28 *m   73.8716   0.6770
 2021-Mar-17 13:30 *m   74.1756   1.0390
 2021-Mar-17 13:32 *m   74.4791   1.4016
 2021-Mar-17 13:34 *m   74.7821   1.7647
 2021-Mar-17 13:36 *m   75.0845   2.1283
 2021-Mar-17 13:38 *m   75.3863   2.4925
 2021-Mar-17 13:40 *m   75.6877   2.8572
 2021-Mar-17 13:42 *m   75.9886   3.2224
 2021-Mar-17 13:44 *m   76.2891   3.5882
 2021-Mar-17 13:46 *m   76.5891   3.9544
 2021-Mar-17 13:48 *m   76.8888   4.3211
 2021-Mar-17 13:50 *m   77.1880   4.6882
 2021-Mar-17 13:52 *m   77.4869   5.0558
 2021-Mar-17 13:54 *m   77.7855   5.4239
 2021-Mar-17 13:56 *m   78.0837   5.7924
 2021-Mar-17 13:58 *m   78.3817   6.1614
 2021-Mar-17 14:00 *m   78.6794   6.5307
 2021-Mar-17 14:02 *m   78.9769   6.9005
 2021-Mar-17 14:04 *m   79.2741   7.2707
 2021-Mar-17 14:06 *m   79.5712   7.6412
 2021-Mar-17 14:08 *m   79.8680   8.0122
 2021-Mar-17 14:10 *m   80.1648   8.3835
 2021-Mar-17 14:12 *m   80.4614   8.7552
 2021-Mar-17 14:14 *m   80.7579   9.1272
 2021-Mar-17 14:16 *m   81.0544   9.4996
 2021-Mar-17 14:18 *m   81.3508   9.8723
 2021-Mar-17 14:20 *m   81.6471  10.2453
 2021-Mar-17 14:22 *m   81.9435  10.6186
 2021-Mar-17 14:24 *m   82.2399  10.9923
 2021-Mar-17 14:26 *m   82.5364  11.3662
 2021-Mar-17 14:28 *m   82.8329  11.7404
 2021-Mar-17 14:30 *m   83.1295  12.1149
 2021-Mar-17 14:32 *m   83.4263  12.4897
 2021-Mar-17 14:34 *m   83.7232  12.8647
 2021-Mar-17 14:36 *m   84.0203  13.2399
 2021-Mar-17 14:38 *m   84.3176  13.6154
 2021-Mar-17 14:40 *m   84.6151  13.9911
 2021-Mar-17 14:42 *m   84.9128  14.3671
 2021-Mar-17 14:44 *m   85.2109  14.7432
 2021-Mar-17 14:46 *m   85.5093  15.1195
 2021-Mar-17 14:48 *m   85.8080  15.4961
 2021-Mar-17 14:50 *m   86.1070  15.8728
 2021-Mar-17 14:52 *m   86.4065  16.2496
 2021-Mar-17 14:54 *m   86.7064  16.6266
 2021-Mar-17 14:56 *m   87.0067  17.0038
 2021-Mar-17 14:58 *m   87.3075  17.3811
 2021-Mar-17 15:00 *m   87.6088  17.7585
 2021-Mar-17 15:02 *m   87.9106  18.1361
 2021-Mar-17 15:04 *m   88.2130  18.5138
 2021-Mar-17 15:06 *m   88.5160  18.8915
 2021-Mar-17 15:08 *m   88.8197  19.2693
 2021-Mar-17 15:10 *m   89.1239  19.6473
 2021-Mar-17 15:12 *m   89.4289  20.0252
 2021-Mar-17 15:14 *m   89.7346  20.4033
 2021-Mar-17 15:16 *m   90.0410  20.7814
 2021-Mar-17 15:18 *m   90.3482  21.1595
 2021-Mar-17 15:20 *m   90.6562  21.5376
 2021-Mar-17 15:22 *m   90.9651  21.9158
 2021-Mar-17 15:24 *m   91.2748  22.2939
 2021-Mar-17 15:26 *m   91.5855  22.6721
 2021-Mar-17 15:28 *m   91.8971  23.0502
 2021-Mar-17 15:30 *m   92.2096  23.4283
 2021-Mar-17 15:32 *m   92.5232  23.8063
 2021-Mar-17 15:34 *m   92.8379  24.1843
 2021-Mar-17 15:36 *m   93.1536  24.5622
 2021-Mar-17 15:38 *m   93.4704  24.9401
 2021-Mar-17 15:40 *m   93.7884  25.3179
 2021-Mar-17 15:42 *m   94.1077  25.6955
 2021-Mar-17 15:44 *m   94.4281  26.0731
 2021-Mar-17 15:46 *m   94.7498  26.4505
 2021-Mar-17 15:48 *m   95.0729  26.8278
 2021-Mar-17 15:50 *m   95.3973  27.2049
 2021-Mar-17 15:52 *m   95.7231  27.5819
 2021-Mar-17 15:54 *m   96.0503  27.9587
 2021-Mar-17 15:56 *m   96.3790  28.3353
 2021-Mar-17 15:58 *m   96.7092  28.7117
 2021-Mar-17 16:00 *m   97.0410  29.0879
 2021-Mar-17 16:02 *m   97.3744  29.4639
 2021-Mar-17 16:04 *m   97.7095  29.8396
 2021-Mar-17 16:06 *m   98.0463  30.2150
 2021-Mar-17 16:08 *m   98.3848  30.5902
 2021-Mar-17 16:10 *m   98.7251  30.9651
 2021-Mar-17 16:12 *m   99.0673  31.3397
 2021-Mar-17 16:14 *m   99.4113  31.7140
 2021-Mar-17 16:16 *m   99.7573  32.0879
 2021-Mar-17 16:18 *m  100.1053  32.4615
 2021-Mar-17 16:20 *m  100.4554  32.8348
 2021-Mar-17 16:22 *m  100.8075  33.2076
 2021-Mar-17 16:24 *m  101.1618  33.5801
 2021-Mar-17 16:26 *m  101.5184  33.9521
 2021-Mar-17 16:28 *m  101.8771  34.3237
 2021-Mar-17 16:30 *m  102.2382  34.6949
 2021-Mar-17 16:32 *m  102.6017  35.0656
 2021-Mar-17 16:34 *m  102.9676  35.4358
 2021-Mar-17 16:36 *m  103.3361  35.8056
 2021-Mar-17 16:38 *m  103.7071  36.1747
 2021-Mar-17 16:40 *m  104.0807  36.5434
 2021-Mar-17 16:42 *m  104.4570  36.9115
 2021-Mar-17 16:44 *m  104.8361  37.2790
 2021-Mar-17 16:46 *m  105.2180  37.6459
 2021-Mar-17 16:48 *m  105.6027  38.0122
 2021-Mar-17 16:50 *m  105.9905  38.3779
 2021-Mar-17 16:52 *m  106.3812  38.7428
 2021-Mar-17 16:54 *m  106.7751  39.1071
 2021-Mar-17 16:56 *m  107.1722  39.4707
 2021-Mar-17 16:58 *m  107.5725  39.8336
 2021-Mar-17 17:00 *m  107.9761  40.1957
 2021-Mar-17 17:02 *m  108.3832  40.5570
 2021-Mar-17 17:04 *m  108.7937  40.9175
 2021-Mar-17 17:06 *m  109.2078  41.2771
 2021-Mar-17 17:08 *m  109.6255  41.6359
 2021-Mar-17 17:10 *m  110.0470  41.9939
 2021-Mar-17 17:12 *m  110.4723  42.3509
 2021-Mar-17 17:14 *m  110.9015  42.7069
 2021-Mar-17 17:16 *m  111.3347  43.0620
 2021-Mar-17 17:18 *m  111.7720  43.4161
 2021-Mar-17 17:20 *m  112.2135  43.7691
 2021-Mar-17 17:22 *m  112.6592  44.1211
 2021-Mar-17 17:24 *m  113.1094  44.4720
 2021-Mar-17 17:26 *m  113.5639  44.8218
 2021-Mar-17 17:28 *m  114.0231  45.1704
 2021-Mar-17 17:30 *m  114.4870  45.5178
 2021-Mar-17 17:32 *m  114.9556  45.8640
 2021-Mar-17 17:34 *m  115.4291  46.2089
